TRANSPORTER-11 OBJECT A 
1 60468U 24149A   26068.74646182  .00010774  00000+0  36054-3 0  9993
2 60468  97.3780 149.0949 0003110 191.0010 169.1164 15.31141332 86830
STARLINK-34160          
1 64119U 25110Z   26068.14858398  .00027105  00000+0  92403-3 0  9993
2 64119  53.1618  28.9858 0001217  65.2368 294.8759 15.30196666 45802
